{
  "links" : {
    "next" : "https://api.nasa.gov/neo/rest/v1/feed?start_date=2006-08-09&end_date=2006-08-09&detailed=true&api_key=t0TVs3DtDT2H8Oy2Zy8m2eVrNsAVKAexjcZXUckd",
    "prev" : "https://api.nasa.gov/neo/rest/v1/feed?start_date=2006-08-07&end_date=2006-08-07&detailed=true&api_key=t0TVs3DtDT2H8Oy2Zy8m2eVrNsAVKAexjcZXUckd",
    "self" : "https://api.nasa.gov/neo/rest/v1/feed?start_date=2006-08-08&end_date=2006-08-08&detailed=true&api_key=t0TVs3DtDT2H8Oy2Zy8m2eVrNsAVKAexjcZXUckd"
  },
  "element_count" : 10,
  "near_earth_objects" : {
    "2006-08-08" : [ {
      "links" : {
        "self" : "https://api.nasa.gov/neo/rest/v1/neo/3146503?api_key=t0TVs3DtDT2H8Oy2Zy8m2eVrNsAVKAexjcZXUckd"
      },
      "neo_reference_id" : "3146503",
      "name" : "(2003 AK73)",
      "nasa_jpl_url" : "http://ssd.jpl.nasa.gov/sbdb.cgi?sstr=3146503",
      "absolute_magnitude_h" : 19.5,
      "estimated_diameter" : {
        "kilometers" : {
          "estimated_diameter_min" : 0.3346223745,
          "estimated_diameter_max" : 0.7482383761
        },
        "meters" : {
          "estimated_diameter_min" : 334.6223744549,
          "estimated_diameter_max" : 748.2383760735
        },
        "miles" : {
          "estimated_diameter_min" : 0.2079246394,
          "estimated_diameter_max" : 0.464933628
        },
        "feet" : {
          "estimated_diameter_min" : 1097.8424710066,
          "estimated_diameter_max" : 2454.8503937571
        }
      },
      "is_potentially_hazardous_asteroid" : false,
      "close_approach_data" : [ {
        "close_approach_date" : "2006-08-08",
        "epoch_date_close_approach" : 1155020400000,
        "relative_velocity" : {
          "kilometers_per_second" : "14.3848730362",
          "kilometers_per_hour" : "51785.5429304849",
          "miles_per_hour" : "32177.5224947782"
        },
        "miss_distance" : {
          "astronomical" : "0.1222744014",
          "lunar" : "47.564743042",
          "kilometers" : "18291990",
          "miles" : "11366116"
        },
        "orbiting_body" : "Earth"
      } ],
      "orbital_data" : {
        "orbit_id" : "16",
        "orbit_determination_date" : "2017-04-06 09:14:25",
        "orbit_uncertainty" : "2",
        "minimum_orbit_intersection" : ".0580337",
        "jupiter_tisserand_invariant" : "3.107",
        "epoch_osculation" : "2458000.5",
        "eccentricity" : ".6981415913627841",
        "semi_major_axis" : "2.445350789651623",
        "inclination" : "4.038150175600392",
        "ascending_node_longitude" : "175.4605559659948",
        "orbital_period" : "1396.722660325133",
        "perihelion_distance" : ".7381496979239983",
        "perihelion_argument" : "195.7463618231543",
        "aphelion_distance" : "4.152551881379249",
        "perihelion_time" : "2458199.869934593569",
        "mean_anomaly" : "308.6131509909224",
        "mean_motion" : ".2577462299610706",
        "equinox" : "J2000"
      }
    }, {
      "links" : {
        "self" : "https://api.nasa.gov/neo/rest/v1/neo/3275510?api_key=t0TVs3DtDT2H8Oy2Zy8m2eVrNsAVKAexjcZXUckd"
      },
      "neo_reference_id" : "3275510",
      "name" : "(2005 GL)",
      "nasa_jpl_url" : "http://ssd.jpl.nasa.gov/sbdb.cgi?sstr=3275510",
      "absolute_magnitude_h" : 21.2,
      "estimated_diameter" : {
        "kilometers" : {
          "estimated_diameter_min" : 0.1529519353,
          "estimated_diameter_max" : 0.3420109247
        },
        "meters" : {
          "estimated_diameter_min" : 152.9519353442,
          "estimated_diameter_max" : 342.0109247198
        },
        "miles" : {
          "estimated_diameter_min" : 0.095039897,
          "estimated_diameter_max" : 0.2125156703
        },
        "feet" : {
          "estimated_diameter_min" : 501.8108275547,
          "estimated_diameter_max" : 1122.0831222578
        }
      },
      "is_potentially_hazardous_asteroid" : true,
      "close_approach_data" : [ {
        "close_approach_date" : "2006-08-08",
        "epoch_date_close_approach" : 1155020400000,
        "relative_velocity" : {
          "kilometers_per_second" : "10.3650951669",
          "kilometers_per_hour" : "37314.3426006902",
          "miles_per_hour" : "23185.6813787456"
        },
        "miss_distance" : {
          "astronomical" : "0.3686115787",
          "lunar" : "143.3899078369",
          "kilometers" : "55143508",
          "miles" : "34264588"
        },
        "orbiting_body" : "Earth"
      } ],
      "orbital_data" : {
        "orbit_id" : "13",
        "orbit_determination_date" : "2017-04-06 09:11:11",
        "orbit_uncertainty" : "2",
        "minimum_orbit_intersection" : ".00600421",
        "jupiter_tisserand_invariant" : "5.752",
        "epoch_osculation" : "2458000.5",
        "eccentricity" : ".3061406081206968",
        "semi_major_axis" : "1.055976654688112",
        "inclination" : "15.89806929092856",
        "ascending_node_longitude" : "43.64071598530212",
        "orbital_period" : "396.3509490067624",
        "perihelion_distance" : ".7326993194606343",
        "perihelion_argument" : "265.3538903718975",
        "aphelion_distance" : "1.379253989915589",
        "perihelion_time" : "2457914.968671870113",
        "mean_anomaly" : "77.68690400242687",
        "mean_motion" : ".9082859544102108",
        "equinox" : "J2000"
      }
    }, {
      "links" : {
        "self" : "https://api.nasa.gov/neo/rest/v1/neo/3404525?api_key=t0TVs3DtDT2H8Oy2Zy8m2eVrNsAVKAexjcZXUckd"
      },
      "neo_reference_id" : "3404525",
      "name" : "(2008 EJ)",
      "nasa_jpl_url" : "http://ssd.jpl.nasa.gov/sbdb.cgi?sstr=3404525",
      "absolute_magnitude_h" : 19.8,
      "estimated_diameter" : {
        "kilometers" : {
          "estimated_diameter_min" : 0.2914439045,
          "estimated_diameter_max" : 0.6516883822
        },
        "meters" : {
          "estimated_diameter_min" : 291.4439045349,
          "estimated_diameter_max" : 651.6883821679
        },
        "miles" : {
          "estimated_diameter_min" : 0.1810947904,
          "estimated_diameter_max" : 0.4049402617
        },
        "feet" : {
          "estimated_diameter_min" : 956.1808197541,
          "estimated_diameter_max" : 2138.0853117517
        }
      },
      "is_potentially_hazardous_asteroid" : false,
      "close_approach_data" : [ {
        "close_approach_date" : "2006-08-08",
        "epoch_date_close_approach" : 1155020400000,
        "relative_velocity" : {
          "kilometers_per_second" : "30.390150773",
          "kilometers_per_hour" : "109404.542782755",
          "miles_per_hour" : "67979.7282640957"
        },
        "miss_distance" : {
          "astronomical" : "0.4497166094",
          "lunar" : "174.9397583008",
          "kilometers" : "67276648",
          "miles" : "41803768"
        },
        "orbiting_body" : "Earth"
      } ],
      "orbital_data" : {
        "orbit_id" : "27",
        "orbit_determination_date" : "2017-04-06 09:04:11",
        "orbit_uncertainty" : "1",
        "minimum_orbit_intersection" : ".359849",
        "jupiter_tisserand_invariant" : "5.301",
        "epoch_osculation" : "2458000.5",
        "eccentricity" : ".4827102578385575",
        "semi_major_axis" : "1.110622796789464",
        "inclination" : "40.40324091043465",
        "ascending_node_longitude" : "166.7384080643853",
        "orbital_period" : "427.5119927893626",
        "perihelion_distance" : ".5745137801898418",
        "perihelion_argument" : "208.7895425025945",
        "aphelion_distance" : "1.646731813389086",
        "perihelion_time" : "2457824.782013014943",
        "mean_anomaly" : "147.9688906546967",
        "mean_motion" : ".8420816399819078",
        "equinox" : "J2000"
      }
    } ]
  }
}